IRIDIUM 155             
1 43573U 18061E   24210.91442680  .00000227  00000+0  74153-4 0  9995
2 43573  86.3998 344.3163 0002379  87.9332 272.2136 14.34218649314704
IRIDIUM 154             
1 43574U 18061F   24210.89539863  .00000201  00000+0  64635-4 0  9999
2 43574  86.4005 344.4240 0002154  99.6960 260.4479 14.34217725314758
IRIDIUM 163             
1 43575U 18061G   24210.87636975  .00000236  00000+0  77145-4 0  9998
2 43575  86.4003 344.3690 0002180  95.8888 264.2556 14.34219427314727
IRIDIUM 156             
1 43576U 18061H   24210.92076954  .00000216  00000+0  70171-4 0  9990
2 43576  86.4001 344.3568 0002122  89.3558 270.7881 14.34218305314725
IRIDIUM 164             
1 43577U 18061J   24210.90174033  .00000280  00000+0  92937-4 0  9991
2 43577  86.4002 344.3943 0001872  95.2542 264.8867 14.34218949314760
IRIDIUM 159             
1 43578U 18061K   24210.87002753  .00000461  00000+0  15743-3 0  9997
2 43578  86.4001 344.3586 0002092  99.0079 261.1354 14.34218432314729
IRIDIUM 180             
1 43922U 19002A   24210.93929320  .00000343  00000+0  11544-3 0  9995
2 43922  86.3953 281.2066 0002306  97.9475 262.1982 14.34218367290340
IRIDIUM 176             
1 43923U 19002B   24210.91801149  .00000047  00000+0  34942-5 0  9992
2 43923  86.6085 281.2345 0002164  95.5887 264.5577 14.72242826297985
IRIDIUM 168             
1 43924U 19002C   24210.93295606  .00000431  00000+0  14673-3 0  9994
2 43924  86.3956 281.2672 0002182  96.2956 263.8488 14.34214966290324
IRIDIUM 173             
1 43925U 19002D   24210.92026497  .00000170  00000+0  53809-4 0  9999
2 43925  86.3953 281.1896 0002194  95.7330 264.4116 14.34218682290304
IRIDIUM 169             
1 43926U 19002E   24210.78922688  .00000599  00000+0  18945-3 0  9997
2 43926  86.4246 312.8762 0004209  95.8299 264.3379 14.38611184291252
IRIDIUM 172             
1 43927U 19002F   24210.91392203  .00000337  00000+0  11323-3 0  9990
2 43927  86.3953 281.1980 0002203  91.6123 268.5325 14.34219327290311
IRIDIUM 175             
1 43928U 19002G   24210.64049972  .00001294  00000+0  20117-3 0  9997
2 43928  86.1480 252.1471 0002670  94.2054 265.9468 14.72252846297937
IRIDIUM 171             
1 43929U 19002H   24210.75535796  .00000122  00000+0  36333-4 0  9991
2 43929  86.3961 281.4945 0002095  91.3136 268.8300 14.34218183290287
IRIDIUM 170             
1 43930U 19002J   24210.72026741  .00001475  00000+0  23003-3 0  9996
2 43930  86.6083 281.3221 0002317  93.1472 267.0010 14.72259241297966
IRIDIUM 167             
1 43931U 19002K   24210.88855261  .00000080  00000+0  21489-4 0  9999
2 43931  86.3951 281.2248 0002293  91.3328 268.8131 14.34218062290307
IRIDIUM 181             
1 56726U 23068S   24210.90498342  .00000720  00000+0  20685-3 0  9995
2 56726  86.8668 336.9800 0002229  89.0116 271.1341 14.43581865 63158
IRIDIUM 177             
1 56727U 23068T   24210.80021669  .00002478  00000+0  32254-3 0  9996
2 56727  86.1974 295.6043 0002405  90.8565 269.2932 14.80234115 64537
IRIDIUM 174             
1 56728U 23068U   24210.79478320  .00002422  00000+0  31527-3 0  9996
2 56728  86.1981 295.7140 0002532  90.9208 269.2303 14.80234474 64531
IRIDIUM 178             
1 56729U 23068V   24210.78936885  .00002431  00000+0  31646-3 0  9993
2 56729  86.5800 315.1547 0002711  90.7295 269.4237 14.80236739 64531
IRIDIUM 179             
1 56730U 23068W   24210.71632941  .00000888  00000+0  11338-3 0  9994
2 56730  86.6811 319.8431 0002224  96.6879 263.4596 14.80235678 64523
